CELESTIS-02             
1 25160U 98007D   22319.54379312 -.00000005  00000+0  55405-4 0  9997
2 25160 107.9827 211.0206 0063406 213.1789 214.9537 14.21663481284339
CELESTIS-03             
1 26034U 99070C   22319.52725087  .00021281  00000+0  85752-3 0  9996
2 26034  98.3059 341.0700 0008121 346.6375  13.4644 15.24850944244040
